ORBCOMM FM20            
1 25416U 98046D   24167.92394295  .00001436  00000+0  54500-3 0  9998
2 25416  44.9943 113.4218 0001487 315.5708  44.5019 14.35358570351601
ORBCOMM FM16            
1 25417U 98046E   24167.92661407  .00002272  00000+0  81645-3 0  9990
2 25417  44.9931 108.8972 0004308 274.9044  85.1311 14.36388050351546
ORBCOMM FM15            
1 25418U 98046F   24167.89030996  .00001732  00000+0  63768-3 0  9996
2 25418  44.9973 113.2157 0004051 278.7733  81.2656 14.36102342351547
ORBCOMM FM14            
1 25419U 98046G   24167.84090204  .00002003  00000+0  72705-3 0  9993
2 25419  44.9953 112.5114 0002737 277.5048  82.5488 14.36291342351496
ORBCOMM FM13            
1 25420U 98046H   24167.55733692  .00001772  00000+0  65847-3 0  9999
2 25420  44.9975 118.9317 0004751 255.1927 104.8394 14.35536988350516
ORBCOMM FM21            
1 25475U 98053A   24167.78830783  .00000951  00000+0  37655-3 0  9995
2 25475  45.0073 202.2150 0002492 258.0733 101.9835 14.35449187344566
ORBCOMM FM22            
1 25476U 98053B   24167.82171846  .00001308  00000+0  49414-3 0  9992
2 25476  45.0067 199.1900 0003104 230.4286 129.6287 14.36011364344566
ORBCOMM FM23            
1 25477U 98053C   24167.81536817  .00001007  00000+0  39550-3 0  9991
2 25477  45.0073 204.5012 0002771 236.5627 123.4955 14.35497082344719
